[Satellite]
VERSION=1.1
NAME=INTELSAT 901 (IS-901)
NICKNAME=INTELSAT 901 (IS-901)
TLE1=1 26824U 01024A   17186.19286301 -.00000145  00000-0  00000-0 0  9993
TLE2=2 26824   0.0106 343.0268 0002602 113.4862 238.2859  1.00271814 58916
